[{"OBJECT_NAME":"SL-8 R/B","OBJECT_ID":"1991-006B","EPOCH":"2026-03-10T06:39:48.337920","MEAN_MOTION":13.77494316,"ECCENTRICITY":0.0023049,"INCLINATION":82.9466,"RA_OF_ASC_NODE":169.6089,"ARG_OF_PERICENTER":36.7252,"MEAN_ANOMALY":22.3119,"EPHEMERIS_TYPE":0,"CLASSIFICATION_TYPE":"U","NORAD_CAT_ID":21088,"ELEMENT_SET_NO":999,"REV_AT_EPOCH":76415,"BSTAR":6.5824481e-5,"MEAN_MOTION_DOT":8.1e-7,"MEAN_MOTION_DDOT":0},{"OBJECT_NAME":"OKEAN-3","OBJECT_ID":"1991-039A","EPOCH":"2026-03-10T03:28:03.525600","MEAN_MOTION":15.04809379,"ECCENTRICITY":0.00139172,"INCLINATION":82.5191,"RA_OF_ASC_NODE":336.4029,"ARG_OF_PERICENTER":336.6291,"MEAN_ANOMALY":23.4302,"EPHEMERIS_TYPE":0,"CLASSIFICATION_TYPE":"U","NORAD_CAT_ID":21397,"ELEMENT_SET_NO":999,"REV_AT_EPOCH":86510,"BSTAR":0.00032585043,"MEAN_MOTION_DOT":4.635e-5,"MEAN_MOTION_DDOT":0},{"OBJECT_NAME":"COSMOS 2151","OBJECT_ID":"1991-042A","EPOCH":"2026-03-10T06:48:29.905344","MEAN_MOTION":15.00106781,"ECCENTRICITY":0.00139762,"INCLINATION":82.4931,"RA_OF_ASC_NODE":83.1031,"ARG_OF_PERICENTER":62.1053,"MEAN_ANOMALY":298.1584,"EPHEMERIS_TYPE":0,"CLASSIFICATION_TYPE":"U","NORAD_CAT_ID":21422,"ELEMENT_SET_NO":999,"REV_AT_EPOCH":86328,"BSTAR":0.00015805938,"MEAN_MOTION_DOT":2.001e-5,"MEAN_MOTION_DDOT":0},{"OBJECT_NAME":"SL-14 R/B","OBJECT_ID":"1991-042B","EPOCH":"2026-03-09T21:25:37.353216","MEAN_MOTION":14.81829845,"ECCENTRICITY":0.0015798,"INCLINATION":82.4923,"RA_OF_ASC_NODE":219.9918,"ARG_OF_PERICENTER":237.9189,"MEAN_ANOMALY":122.0492,"EPHEMERIS_TYPE":0,"CLASSIFICATION_TYPE":"U","NORAD_CAT_ID":21423,"ELEMENT_SET_NO":999,"REV_AT_EPOCH":85310,"BSTAR":7.8976e-5,"MEAN_MOTION_DOT":6.48e-6,"MEAN_MOTION_DDOT":0},{"OBJECT_NAME":"ERS-1","OBJECT_ID":"1991-050A","EPOCH":"2026-03-10T01:04:38.280864","MEAN_MOTION":14.39449653,"ECCENTRICITY":0.00316351,"INCLINATION":98.7882,"RA_OF_ASC_NODE":87.2884,"ARG_OF_PERICENTER":199.3829,"MEAN_ANOMALY":160.6157,"EPHEMERIS_TYPE":0,"CLASSIFICATION_TYPE":"U","NORAD_CAT_ID":21574,"ELEMENT_SET_NO":999,"REV_AT_EPOCH":81578,"BSTAR":0.00014036958,"MEAN_MOTION_DOT":3.93e-6,"MEAN_MOTION_DDOT":0},{"OBJECT_NAME":"ARIANE 40 R/B","OBJECT_ID":"1991-050F","EPOCH":"2026-03-10T03:56:39.007968","MEAN_MOTION":14.42894016,"ECCENTRICITY":0.00042989,"INCLINATION":98.201,"RA_OF_ASC_NODE":121.3829,"ARG_OF_PERICENTER":80.2346,"MEAN_ANOMALY":279.933,"EPHEMERIS_TYPE":0,"CLASSIFICATION_TYPE":"U","NORAD_CAT_ID":21610,"ELEMENT_SET_NO":999,"REV_AT_EPOCH":81906,"BSTAR":0.0001214376,"MEAN_MOTION_DOT":3.64e-6,"MEAN_MOTION_DDOT":0},{"OBJECT_NAME":"INTERCOSMOS 25","OBJECT_ID":"1991-086A","EPOCH":"2026-03-10T03:40:24.470400","MEAN_MOTION":12.12000626,"ECCENTRICITY":0.14869683,"INCLINATION":82.6045,"RA_OF_ASC_NODE":309.7287,"ARG_OF_PERICENTER":115.9335,"MEAN_ANOMALY":260.2411,"EPHEMERIS_TYPE":0,"CLASSIFICATION_TYPE":"U","NORAD_CAT_ID":21819,"ELEMENT_SET_NO":999,"REV_AT_EPOCH":49674,"BSTAR":0.00033862142,"MEAN_MOTION_DOT":1.764e-5,"MEAN_MOTION_DDOT":0},{"OBJECT_NAME":"SL-8 R/B","OBJECT_ID":"1992-008B","EPOCH":"2026-03-10T02:19:48.048096","MEAN_MOTION":13.75969834,"ECCENTRICITY":0.00355931,"INCLINATION":82.9225,"RA_OF_ASC_NODE":267.4753,"ARG_OF_PERICENTER":132.1695,"MEAN_ANOMALY":346.8371,"EPHEMERIS_TYPE":0,"CLASSIFICATION_TYPE":"U","NORAD_CAT_ID":21876,"ELEMENT_SET_NO":999,"REV_AT_EPOCH":70947,"BSTAR":-1.233565e-6,"MEAN_MOTION_DOT":1.4e-7,"MEAN_MOTION_DDOT":0},{"OBJECT_NAME":"SL-8 R/B","OBJECT_ID":"1992-020B","EPOCH":"2026-03-10T06:32:44.613312","MEAN_MOTION":13.75549534,"ECCENTRICITY":0.00276902,"INCLINATION":82.9336,"RA_OF_ASC_NODE":153.3288,"ARG_OF_PERICENTER":297.0962,"MEAN_ANOMALY":117.1074,"EPHEMERIS_TYPE":0,"CLASSIFICATION_TYPE":"U","NORAD_CAT_ID":21938,"ELEMENT_SET_NO":999,"REV_AT_EPOCH":70121,"BSTAR":5.5107264e-5,"MEAN_MOTION_DOT":6.8e-7,"MEAN_MOTION_DDOT":0},{"OBJECT_NAME":"USA 81","OBJECT_ID":"1992-023A","EPOCH":"2026-03-10T03:32:50.760672","MEAN_MOTION":14.32368178,"ECCENTRICITY":0.00024437,"INCLINATION":85.0084,"RA_OF_ASC_NODE":131.1769,"ARG_OF_PERICENTER":77.2317,"MEAN_ANOMALY":282.9149,"EPHEMERIS_TYPE":0,"CLASSIFICATION_TYPE":"U","NORAD_CAT_ID":21949,"ELEMENT_SET_NO":999,"REV_AT_EPOCH":9485,"BSTAR":6.5422512e-5,"MEAN_MOTION_DOT":1.97e-6,"MEAN_MOTION_DDOT":0},{"OBJECT_NAME":"COSMOS 2219","OBJECT_ID":"1992-076A","EPOCH":"2026-03-10T07:10:43.890240","MEAN_MOTION":14.1409274,"ECCENTRICITY":0.00189758,"INCLINATION":71.0636,"RA_OF_ASC_NODE":16.7932,"ARG_OF_PERICENTER":206.2101,"MEAN_ANOMALY":153.8063,"EPHEMERIS_TYPE":0,"CLASSIFICATION_TYPE":"U","NORAD_CAT_ID":22219,"ELEMENT_SET_NO":999,"REV_AT_EPOCH":71846,"BSTAR":8.1559392e-5,"MEAN_MOTION_DOT":1.08e-6,"MEAN_MOTION_DDOT":0},{"OBJECT_NAME":"SL-16 R/B","OBJECT_ID":"1992-076B","EPOCH":"2026-03-10T07:49:39.390240","MEAN_MOTION":14.16859544,"ECCENTRICITY":0.00104601,"INCLINATION":71.0008,"RA_OF_ASC_NODE":187.0329,"ARG_OF_PERICENTER":95.2506,"MEAN_ANOMALY":296.2076,"EPHEMERIS_TYPE":0,"CLASSIFICATION_TYPE":"U","NORAD_CAT_ID":22220,"ELEMENT_SET_NO":999,"REV_AT_EPOCH":72192,"BSTAR":-6.3211692e-5,"MEAN_MOTION_DOT":-1.75e-6,"MEAN_MOTION_DDOT":0},{"OBJECT_NAME":"COSMOS 2221","OBJECT_ID":"1992-080A","EPOCH":"2026-03-09T23:19:19.776288","MEAN_MOTION":14.9620142,"ECCENTRICITY":0.001407,"INCLINATION":82.5011,"RA_OF_ASC_NODE":278.8108,"ARG_OF_PERICENTER":186.0623,"MEAN_ANOMALY":174.0431,"EPHEMERIS_TYPE":0,"CLASSIFICATION_TYPE":"U","NORAD_CAT_ID":22236,"ELEMENT_SET_NO":999,"REV_AT_EPOCH":78083,"BSTAR":0.000195,"MEAN_MOTION_DOT":2.227e-5,"MEAN_MOTION_DDOT":0},{"OBJECT_NAME":"SL-16 R/B","OBJECT_ID":"1992-093B","EPOCH":"2026-03-10T05:37:14.022048","MEAN_MOTION":14.15447732,"ECCENTRICITY":0.00064006,"INCLINATION":71.0241,"RA_OF_ASC_NODE":3.1226,"ARG_OF_PERICENTER":293.1429,"MEAN_ANOMALY":66.9019,"EPHEMERIS_TYPE":0,"CLASSIFICATION_TYPE":"U","NORAD_CAT_ID":22285,"ELEMENT_SET_NO":999,"REV_AT_EPOCH":71323,"BSTAR":-7.5333527e-5,"MEAN_MOTION_DOT":-1.95e-6,"MEAN_MOTION_DDOT":0},{"OBJECT_NAME":"COSMOS 2228","OBJECT_ID":"1992-094A","EPOCH":"2026-03-10T06:07:34.991904","MEAN_MOTION":14.97193444,"ECCENTRICITY":0.00167839,"INCLINATION":82.5157,"RA_OF_ASC_NODE":236.7686,"ARG_OF_PERICENTER":302.7017,"MEAN_ANOMALY":57.2586,"EPHEMERIS_TYPE":0,"CLASSIFICATION_TYPE":"U","NORAD_CAT_ID":22286,"ELEMENT_SET_NO":999,"REV_AT_EPOCH":77614,"BSTAR":0.00025635979,"MEAN_MOTION_DOT":2.997e-5,"MEAN_MOTION_DDOT":0},{"OBJECT_NAME":"SL-16 R/B","OBJECT_ID":"1993-016B","EPOCH":"2026-03-09T20:24:52.460352","MEAN_MOTION":14.1530875,"ECCENTRICITY":0.0011827,"INCLINATION":71.0073,"RA_OF_ASC_NODE":214.8427,"ARG_OF_PERICENTER":314.0352,"MEAN_ANOMALY":45.9796,"EPHEMERIS_TYPE":0,"CLASSIFICATION_TYPE":"U","NORAD_CAT_ID":22566,"ELEMENT_SET_NO":999,"REV_AT_EPOCH":70219,"BSTAR":8.0304335e-5,"MEAN_MOTION_DOT":1.09e-6,"MEAN_MOTION_DDOT":0},{"OBJECT_NAME":"COSMOS 2242","OBJECT_ID":"1993-024A","EPOCH":"2026-03-10T00:53:24.812736","MEAN_MOTION":14.96550816,"ECCENTRICITY":0.00151651,"INCLINATION":82.5157,"RA_OF_ASC_NODE":266.3841,"ARG_OF_PERICENTER":307.6039,"MEAN_ANOMALY":52.3805,"EPHEMERIS_TYPE":0,"CLASSIFICATION_TYPE":"U","NORAD_CAT_ID":22626,"ELEMENT_SET_NO":999,"REV_AT_EPOCH":78044,"BSTAR":0.00021416804,"MEAN_MOTION_DOT":2.466e-5,"MEAN_MOTION_DDOT":0}]
